GLOBALSTAR M045         
1 25676U 99019A   26019.29823645 -.00000081  00000+0  10743-3 0  9998
2 25676  51.9979  49.3008 0000193 173.5162 288.3030 12.27070963219924
GLOBALSTAR M019         
1 25677U 99019B   26019.19353371 -.00000202  00000+0 -11736-2 0  9990
2 25677  51.9843 195.1677 0002206  63.8208 108.0156 12.13880375211375
GLOBALSTAR M044         
1 25678U 99019C   26019.19682654 -.00000096  00000+0 -17650-3 0  9993
2 25678  51.9942 173.5397 0007180  96.5799  74.6607 11.90264144197049
GLOBALSTAR M042         
1 25679U 99019D   26019.17464156 -.00000130  00000+0 -35892-3 0  9994
2 25679  51.9996 161.2087 0003307  44.9000 125.8238 12.22096017211660
GLOBALSTAR M025         
1 25770U 99031A   26019.31670486 -.00000059  00000+0  26570-3 0  9993
2 25770  51.9839  18.5894 0002230 141.1135 231.8343 11.22560861505989
GLOBALSTAR M049         
1 25771U 99031B   26019.24399153 -.00000140  00000+0 -25809-2 0  9990
2 25771  51.9887  64.3780 0002665  31.9036 328.1921 11.12123158141468
GLOBALSTAR M047         
1 25772U 99031C   26019.32598181 -.00000057  00000+0  35203-3 0  9998
2 25772  51.9848  40.5117 0016266 273.3973  86.4973 11.31932001495582
GLOBALSTAR M052         
1 25773U 99031D   26019.34696246 -.00000087  00000+0 -70533-3 0  9991
2 25773  51.9840 169.7793 0003299 148.9357 220.3034 11.15063353502622
